OBJECT_NAME,OBJECT_ID,EPOCH,MEAN_MOTION,ECCENTRICITY,INCLINATION,RA_OF_ASC_NODE,ARG_OF_PERICENTER,MEAN_ANOMALY,EPHEMERIS_TYPE,CLASSIFICATION_TYPE,NORAD_CAT_ID,ELEMENT_SET_NO,REV_AT_EPOCH,BSTAR,MEAN_MOTION_DOT,MEAN_MOTION_DDOT
COSMOS 2569 (703K),2023-114A,2026-03-01T07:46:58.285344,2.13103901,.0012874,65.2399,76.2569,291.4204,68.4967,0,U,57517,999,1996,0,.38E-6,0
BEIDOU-3 M28 (C50),2023-207A,2026-02-28T07:07:27.835680,1.86229645,.00048672,55.6562,65.9752,301.5322,58.4601,0,U,58654,999,1481,0,-.2E-7,0
BEIDOU-3 M26 (C48),2023-207B,2026-03-01T04:02:15.809856,1.86229561,.000571,55.6592,65.9320,287.4313,72.5442,0,U,58655,999,1481,0,-.4E-7,0
GSAT0225 (GALILEO 29),2024-079A,2026-02-28T11:26:35.197728,1.70474768,.00025001,55.0470,104.1172,256.3085,211.1082,0,U,59598,999,1146,0,.8E-7,0
GSAT0227 (GALILEO 30),2024-079C,2026-03-01T01:43:30.970272,1.70474778,.00004154,55.0426,104.0995,85.7874,274.2997,0,U,59600,999,1152,0,.1E-6,0
GSAT0232 (GALILEO 32),2024-167A,2026-02-17T15:52:34.088160,1.70443939,.00036004,55.2225,224.5881,296.6314,116.1306,0,U,61182,999,826,0,.69E-6,0
GSAT0226 (GALILEO 31),2024-167B,2026-02-27T23:49:21.599904,1.70473900,.00016952,55.2198,224.3131,129.0505,235.5609,0,U,61183,999,899,0,.31E-6,0
BEIDOU-3 M25 (C47),2024-168B,2026-03-01T06:01:48.762048,1.86229934,.0004308,54.5685,305.9942,317.7219,214.9030,0,U,61186,999,977,0,-.47E-6,0
BEIDOU-3 M27 (C49),2024-168C,2026-02-27T20:46:32.748384,1.86230003,.00028954,54.5652,306.0258,18.1383,80.5013,0,U,61187,999,722,0,-.44E-6,0
GPS BIII-7  (PRN 01),2024-242A,2026-02-28T09:59:38.815872,2.00569355,.0015681,54.8934,338.5934,355.9356,192.4850,0,U,62339,999,907,0,-.1E-5,0
NVS-02 (IRNSS-1K),2025-020A,2026-02-28T15:34:01.752096,2.17707374,.7349367,20.8439,299.1206,77.2527,349.0950,0,U,62850,999,861,.69979938E-3,.793E-5,0
QZS-6 (QZSS/PRN 200),2025-023A,2026-03-01T12:12:21.341376,1.00270649,.0001948,0.0448,296.8308,33.2713,102.7935,0,U,62876,999,387,0,-.251E-5,0
COSMOS 2584 (704K),2025-042A,2026-02-28T17:48:18.452736,2.13103267,.0007823,65.0213,76.4877,236.2440,123.7373,0,U,63130,999,773,0,.39E-6,0
GPS BIII-8  (PRN 21),2025-116A,2026-03-01T09:29:38.054112,2.00553169,.0008434,55.1654,35.4679,324.7400,36.5418,0,U,64202,999,571,0,-.66E-6,0
COSMOS 2596 (708K),2025-206B,2026-03-01T05:17:20.889024,2.13100085,.00129328,64.6960,318.7463,315.1569,169.5039,0,U,65590,999,361,0,-.49E-6,0
GSAT0233 (GALILEO 33),2025-302A,2026-02-13T12:00:00.000000,1.70474578,.00030114,54.3935,105.2952,207.0582,359.4109,0,U,67160,999,2,0,-.8E-7,0
GSAT0234 (GALILEO 34),2025-302C,2026-02-13T12:00:00.000000,1.70475065,.00030814,54.3967,105.2938,266.8423,119.7309,0,U,67162,999,12,0,-.8E-7,0
GPS BIII-9  (PRN 20),2026-017A,2026-03-01T00:09:48.066912,2.00560915,.00013761,55.0163,93.0952,22.1631,337.9150,0,U,67588,999,42944,0,.18E-6,0